1 08820U 76039A   03314.83880122 -.00000004  00000-0  10000-3 0  9928
2 08820 109.8272 231.7968 0044437 270.1121  89.4404  6.38664643386429
